[{"OBJECT_NAME":"STARLINK-33821","OBJECT_ID":"2025-093Z","EPOCH":"2026-03-09T01:24:43.857216","MEAN_MOTION":15.27586901,"ECCENTRICITY":9.015e-5,"INCLINATION":43.0003,"RA_OF_ASC_NODE":81.5957,"ARG_OF_PERICENTER":277.1325,"MEAN_ANOMALY":82.9424,"EPHEMERIS_TYPE":0,"CLASSIFICATION_TYPE":"U","NORAD_CAT_ID":63859,"ELEMENT_SET_NO":999,"REV_AT_EPOCH":4785,"BSTAR":0.0011694757,"MEAN_MOTION_DOT":0.00032066,"MEAN_MOTION_DDOT":0},{"OBJECT_NAME":"KSLV-II R\/B","OBJECT_ID":"2023-072H","EPOCH":"2026-03-09T20:13:26.441760","MEAN_MOTION":15.33109439,"ECCENTRICITY":0.00241884,"INCLINATION":97.4991,"RA_OF_ASC_NODE":274.152,"ARG_OF_PERICENTER":318.2938,"MEAN_ANOMALY":41.646,"EPHEMERIS_TYPE":0,"CLASSIFICATION_TYPE":"U","NORAD_CAT_ID":56750,"ELEMENT_SET_NO":999,"REV_AT_EPOCH":15516,"BSTAR":0.00028309532,"MEAN_MOTION_DOT":9.057e-5,"MEAN_MOTION_DDOT":0}]
